start=new Date('2023-05-14T00:00:00.000Z').valueOf();
sats=[{"COUNTRY_CODE":"US","OBJECT_ID":"2021-038AV","BSTAR":"0.00167760000000","OBJECT_TYPE":"PAYLOAD","MEAN_MOTION":"15.06428135","EPOCH":"2023-05-13T17:28:13.168416","DECAY_DATE":null,"TLE_LINE2":"2 48396  53.0535 289.7828 0001385  79.3094 280.8051 15.06428135113134","CLASSIFICATION_TYPE":"U","LAUNCH_DATE":"2021-05-04","ELEMENT_SET_NO":"999","REV_AT_EPOCH":"11313","MEAN_MOTION_DOT":"0.00024814","SEMIMAJOR_AXIS":"6925.262","CENTER_NAME":"EARTH","PERIOD":"95.590","ECCENTRICITY":"0.00013850","RCS_SIZE":"LARGE","FILE":"3907148","REF_FRAME":"TEME","MEAN_ANOMALY":"280.8051","MEAN_MOTION_DDOT":"0.0000000000000","SITE":"AFETR","RA_OF_ASC_NODE":"289.7828","NORAD_CAT_ID":"48396","TIME_SYSTEM":"UTC","TLE_LINE1":"1 48396U 21038AV  23133.72793019  .00024814  00000-0  16776-2 0  9992","OBJECT_NAME":"STARLINK-2575","PERIAPSIS":"546.168","EPHEMERIS_TYPE":"0","ARG_OF_PERICENTER":"79.3094","MEAN_ELEMENT_THEORY":"SGP4","APOAPSIS":"548.086","INCLINATION":"53.0535","GP_ID":"231777870"},{"OBJECT_TYPE":"PAYLOAD","BSTAR":"0.00159440000000","OBJECT_ID":"2021-038AW","COUNTRY_CODE":"US","DECAY_DATE":null,"EPOCH":"2023-05-13T17:22:54.278976","MEAN_MOTION":"15.06428540","TLE_LINE2":"2 48397  53.0537 289.8023 0001170  76.7939 283.3180 15.06428540113137","CLASSIFICATION_TYPE":"U","SEMIMAJOR_AXIS":"6925.261","MEAN_MOTION_DOT":"0.00023565","ELEMENT_SET_NO":"999","LAUNCH_DATE":"2021-05-04","REV_AT_EPOCH":"11313","MEAN_MOTION_DDOT":"0.0000000000000","SITE":"AFETR","RA_OF_ASC_NODE":"289.8023","MEAN_ANOMALY":"283.3180","REF_FRAME":"TEME","ECCENTRICITY":"0.00011700","FILE":"3907148","RCS_SIZE":"LARGE","PERIOD":"95.590","CENTER_NAME":"EARTH","OBJECT_NAME":"STARLINK-2590","TLE_LINE1":"1 48397U 21038AW  23133.72423934  .00023565  00000-0  15944-2 0  9997","TIME_SYSTEM":"UTC","NORAD_CAT_ID":"48397","ARG_OF_PERICENTER":"76.7939","EPHEMERIS_TYPE":"0","PERIAPSIS":"546.316","APOAPSIS":"547.936","INCLINATION":"53.0537","GP_ID":"231778113","MEAN_ELEMENT_THEORY":"SGP4"},{"MEAN_ELEMENT_THEORY":"SGP4","APOAPSIS":"547.342","INCLINATION":"53.0533","GP_ID":"231778873","EPHEMERIS_TYPE":"0","PERIAPSIS":"546.915","ARG_OF_PERICENTER":"121.7189","NORAD_CAT_ID":"48398","TIME_SYSTEM":"UTC","TLE_LINE1":"1 48398U 21038AX  23133.72055066  .00027368  00000-0  18477-2 0  9994","OBJECT_NAME":"STARLINK-2588","CENTER_NAME":"EARTH","PERIOD":"95.590","ECCENTRICITY":"0.00003080","FILE":"3907148","RCS_SIZE":"LARGE","MEAN_ANOMALY":"238.3830","REF_FRAME":"TEME","MEAN_MOTION_DDOT":"0.0000000000000","SITE":"AFETR","RA_OF_ASC_NODE":"289.8143","REV_AT_EPOCH":"11313","LAUNCH_DATE":"2021-05-04","ELEMENT_SET_NO":"999","MEAN_MOTION_DOT":"0.00027368","SEMIMAJOR_AXIS":"6925.264","TLE_LINE2":"2 48398  53.0533 289.8143 0000308 121.7189 238.3830 15.06427700113136","CLASSIFICATION_TYPE":"U","MEAN_MOTION":"15.06427700","EPOCH":"2023-05-13T17:17:35.577024","DECAY_DATE":null,"COUNTRY_CODE":"US","OBJECT_ID":"2021-038AX","BSTAR":"0.00184770000000","OBJECT_TYPE":"PAYLOAD"},{"TLE_LINE2":"2 48399  53.0546 289.8355 0001067  62.9066 297.2032 15.06430000113123","CLASSIFICATION_TYPE":"U","SEMIMAJOR_AXIS":"6925.257","MEAN_MOTION_DOT":"0.00027329","ELEMENT_SET_NO":"999","LAUNCH_DATE":"2021-05-04","REV_AT_EPOCH":"11312","BSTAR":"0.00184500000000","OBJECT_TYPE":"PAYLOAD","OBJECT_ID":"2021-038AY","COUNTRY_CODE":"US","DECAY_DATE":null,"EPOCH":"2023-05-13T17:12:17.236224","MEAN_MOTION":"15.06430000","ARG_OF_PERICENTER":"62.9066","EPHEMERIS_TYPE":"0","PERIAPSIS":"546.383","APOAPSIS":"547.861","INCLINATION":"53.0546","GP_ID":"231779109","MEAN_ELEMENT_THEORY":"SGP4","MEAN_MOTION_DDOT":"0.0000000000000","SITE":"AFETR","RA_OF_ASC_NODE":"289.8355","MEAN_ANOMALY":"297.2032","REF_FRAME":"TEME","ECCENTRICITY":"0.00010670","FILE":"3907148","RCS_SIZE":"LARGE","PERIOD":"95.590","CENTER_NAME":"EARTH","OBJECT_NAME":"STARLINK-2587","TLE_LINE1":"1 48399U 21038AY  23133.71686616  .00027329  00000-0  18450-2 0  9993","TIME_SYSTEM":"UTC","NORAD_CAT_ID":"48399"},{"REV_AT_EPOCH":"11191","LAUNCH_DATE":"2021-05-04","ELEMENT_SET_NO":"999","SEMIMAJOR_AXIS":"6925.147","MEAN_MOTION_DOT":"0.00022775","CLASSIFICATION_TYPE":"U","TLE_LINE2":"2 48400  53.0543 289.8511 0001115  75.1268 284.9844 15.06465860111912","EPOCH":"2023-05-13T17:06:55.390176","MEAN_MOTION":"15.06465860","DECAY_DATE":null,"COUNTRY_CODE":"US","BSTAR":"0.00154020000000","OBJECT_TYPE":"PAYLOAD","OBJECT_ID":"2021-038AZ","MEAN_ELEMENT_THEORY":"SGP4","INCLINATION":"53.0543","GP_ID":"231777370","APOAPSIS":"547.784","EPHEMERIS_TYPE":"0","PERIAPSIS":"546.240","ARG_OF_PERICENTER":"75.1268","TIME_SYSTEM":"UTC","NORAD_CAT_ID":"48400","OBJECT_NAME":"STARLINK-2576","TLE_LINE1":"1 48400U 21038AZ  23133.71314109  .00022775  00000-0  15402-2 0  9995","RCS_SIZE":"LARGE","FILE":"3907148","ECCENTRICITY":"0.00011150","CENTER_NAME":"EARTH","PERIOD":"95.588","SITE":"AFETR","RA_OF_ASC_NODE":"289.8511","MEAN_MOTION_DDOT":"0.0000000000000","MEAN_ANOMALY":"284.9844","REF_FRAME":"TEME"},{"ARG_OF_PERICENTER":"142.0637","EPHEMERIS_TYPE":"0","PERIAPSIS":"546.920","GP_ID":"231777613","INCLINATION":"53.0529","APOAPSIS":"547.312","MEAN_ELEMENT_THEORY":"SGP4","MEAN_MOTION_DDOT":"0.0000000000000","SITE":"AFETR","RA_OF_ASC_NODE":"289.6949","REF_FRAME":"TEME","MEAN_ANOMALY":"218.0372","RCS_SIZE":"LARGE","FILE":"3907148","ECCENTRICITY":"0.00002830","PERIOD":"95.590","CENTER_NAME":"EARTH","OBJECT_NAME":"STARLINK-2571","TLE_LINE1":"1 48401U 21038BA  23133.75003690  .00026034  00000-0  17587-2 0  9998","TIME_SYSTEM":"UTC","NORAD_CAT_ID":"48401","CLASSIFICATION_TYPE":"U","TLE_LINE2":"2 48401  53.0529 289.6949 0000283 142.0637 218.0372 15.06431727111918","SEMIMAJOR_AXIS":"6925.251","MEAN_MOTION_DOT":"0.00026034","ELEMENT_SET_NO":"999","LAUNCH_DATE":"2021-05-04","REV_AT_EPOCH":"11191","BSTAR":"0.00175870000000","OBJECT_TYPE":"PAYLOAD","OBJECT_ID":"2021-038BA","COUNTRY_CODE":"US","DECAY_DATE":null,"EPOCH":"2023-05-13T18:00:03.188160","MEAN_MOTION":"15.06431727"},{"APOAPSIS":"547.758","GP_ID":"231778373","INCLINATION":"53.0536","MEAN_ELEMENT_THEORY":"SGP4","ARG_OF_PERICENTER":"51.1934","PERIAPSIS":"546.406","EPHEMERIS_TYPE":"0","OBJECT_NAME":"STARLINK-2560","TLE_LINE1":"1 48402U 21038BB  23133.70853691  .00027472  00000-0  18539-2 0  9993","TIME_SYSTEM":"UTC","NORAD_CAT_ID":"48402","SITE":"AFETR","RA_OF_ASC_NODE":"289.8593","MEAN_MOTION_DDOT":"0.0000000000000","MEAN_ANOMALY":"308.9142","REF_FRAME":"TEME","ECCENTRICITY":"0.00009760","FILE":"3907148","RCS_SIZE":"LARGE","PERIOD":"95.589","CENTER_NAME":"EARTH","SEMIMAJOR_AXIS":"6925.217","MEAN_MOTION_DOT":"0.00027472","LAUNCH_DATE":"2021-05-04","ELEMENT_SET_NO":"999","REV_AT_EPOCH":"11191","TLE_LINE2":"2 48402  53.0536 289.8593 0000976  51.1934 308.9142 15.06442975111914","CLASSIFICATION_TYPE":"U","DECAY_DATE":null,"EPOCH":"2023-05-13T17:00:17.589024","MEAN_MOTION":"15.06442975","OBJECT_TYPE":"PAYLOAD","BSTAR":"0.00185390000000","OBJECT_ID":"2021-038BB","COUNTRY_CODE":"US"},{"NORAD_CAT_ID":"48403","TIME_SYSTEM":"UTC","TLE_LINE1":"1 48403U 21038BC  23133.70580148  .00027437  00000-0  18523-2 0  9992","OBJECT_NAME":"STARLINK-2561","CENTER_NAME":"EARTH","PERIOD":"95.590","FILE":"3907148","RCS_SIZE":"LARGE","ECCENTRICITY":"0.00013810","MEAN_ANOMALY":"277.7231","REF_FRAME":"TEME","SITE":"AFETR","RA_OF_ASC_NODE":"289.8821","MEAN_MOTION_DDOT":"0.0000000000000","MEAN_ELEMENT_THEORY":"SGP4","INCLINATION":"53.0541","GP_ID":"231778609","APOAPSIS":"548.086","EPHEMERIS_TYPE":"0","PERIAPSIS":"546.173","ARG_OF_PERICENTER":"82.3915","MEAN_MOTION":"15.06427348","EPOCH":"2023-05-13T16:56:21.247872","DECAY_DATE":null,"COUNTRY_CODE":"US","OBJECT_ID":"2021-038BC","OBJECT_TYPE":"PAYLOAD","BSTAR":"0.00185230000000","LAUNCH_DATE":"2021-05-04","REV_AT_EPOCH":"11191","ELEMENT_SET_NO":"999","MEAN_MOTION_DOT":"0.00027437","SEMIMAJOR_AXIS":"6925.265","CLASSIFICATION_TYPE":"U","TLE_LINE2":"2 48403  53.0541 289.8821 0001381  82.3915 277.7231 15.06427348111910"},{"MEAN_MOTION_DOT":"0.00028043","SEMIMAJOR_AXIS":"6925.255","REV_AT_EPOCH":"11191","LAUNCH_DATE":"2021-05-04","ELEMENT_SET_NO":"999","TLE_LINE2":"2 48404  53.0533 289.8989 0001076  66.0454 294.0647 15.06430506111918","CLASSIFICATION_TYPE":"U","DECAY_DATE":null,"MEAN_MOTION":"15.06430506","EPOCH":"2023-05-13T16:51:03.441024","OBJECT_ID":"2021-038BD","OBJECT_TYPE":"PAYLOAD","BSTAR":"0.00189250000000","COUNTRY_CODE":"US","APOAPSIS":"547.865","GP_ID":"231777871","INCLINATION":"53.0533","MEAN_ELEMENT_THEORY":"SGP4","ARG_OF_PERICENTER":"66.0454","PERIAPSIS":"546.375","EPHEMERIS_TYPE":"0","TLE_LINE1":"1 48404U 21038BD  23133.70212316  .00028043  00000-0  18925-2 0  9992","OBJECT_NAME":"STARLINK-2593","NORAD_CAT_ID":"48404","TIME_SYSTEM":"UTC","MEAN_ANOMALY":"294.0647","REF_FRAME":"TEME","MEAN_MOTION_DDOT":"0.0000000000000","SITE":"AFETR","RA_OF_ASC_NODE":"289.8989","CENTER_NAME":"EARTH","PERIOD":"95.590","ECCENTRICITY":"0.00010760","RCS_SIZE":"LARGE","FILE":"3907148"},{"ARG_OF_PERICENTER":"110.8792","EPHEMERIS_TYPE":"0","PERIAPSIS":"546.861","APOAPSIS":"547.380","GP_ID":"231778114","INCLINATION":"53.0522","MEAN_ELEMENT_THEORY":"SGP4","MEAN_MOTION_DDOT":"0.0000000000000","SITE":"AFETR","RA_OF_ASC_NODE":"289.6232","MEAN_ANOMALY":"249.2237","REF_FRAME":"TEME","ECCENTRICITY":"0.00003750","RCS_SIZE":"LARGE","FILE":"3907148","CENTER_NAME":"EARTH","PERIOD":"95.590","OBJECT_NAME":"STARLINK-2570","TLE_LINE1":"1 48405U 21038BE  23133.76478246  .00026764  00000-0  18074-2 0  9998","TIME_SYSTEM":"UTC","NORAD_CAT_ID":"48405","TLE_LINE2":"2 48405  53.0522 289.6232 0000375 110.8792 249.2237 15.06430314111925","CLASSIFICATION_TYPE":"U","SEMIMAJOR_AXIS":"6925.256","MEAN_MOTION_DOT":"0.00026764","ELEMENT_SET_NO":"999","LAUNCH_DATE":"2021-05-04","REV_AT_EPOCH":"11192","OBJECT_TYPE":"PAYLOAD","BSTAR":"0.00180740000000","OBJECT_ID":"2021-038BE","COUNTRY_CODE":"US","DECAY_DATE":null,"EPOCH":"2023-05-13T18:21:17.204544","MEAN_MOTION":"15.06430314"}];
